GLOBALSTAR M023 [+]     
1 25621U 99004A   23293.63079535 -.00000080  00000+0  13414-3 0  9999
2 25621  52.0092  97.2649 0009181 222.2967 260.8046 12.62443338139243
GLOBALSTAR M040 [-]     
1 25622U 99004B   23293.93623051 -.00000094  00000+0  56444-4 0  9997
2 25622  51.9899  99.6070 0001389 115.4309  50.2954 12.61957718138830
GLOBALSTAR M036 [-]     
1 25623U 99004C   23293.45648014 -.00000063  00000+0  28075-3 0  9995
2 25623  51.9995  36.8226 0010390 336.3605 102.4866 11.86554196107072
GLOBALSTAR M038 [-]     
1 25624U 99004D   23293.64754888 -.00000063  00000+0  26539-3 0  9997
2 25624  52.0003  15.3895 0001585 214.2646 312.6643 12.32486160127701
GLOBALSTAR M022 [-]     
1 25649U 99012A   23293.86414259 -.00000082  00000+0  54336-4 0  9990
2 25649  52.0012 136.4040 0003532  61.6754  40.4231 12.02471344103554
GLOBALSTAR M041 [-]     
1 25650U 99012B   23293.47302611 -.00000120  00000+0 -44255-3 0  9999
2 25650  52.0049   0.4522 0002084 194.4267 165.6511 11.96644900106013
GLOBALSTAR M046 [-]     
1 25651U 99012C   23293.88591784 -.00000078  00000+0  11973-3 0  9998
2 25651  52.0026 108.5692 0003076 114.0393  38.0888 12.09377083110427
GLOBALSTAR M037 [+]     
1 25652U 99012D   23293.79773924 -.00000053  00000+0  28167-3 0  9993
2 25652  52.0000 227.6103 0001468 308.7612  68.7436 12.62386475134811
